{"epoch":1784799577,"count":18318,"objects":[{"id":"69547","name":"STARLINK-37881","type":"PAYLOAD","l1":"1 69547U 26135B   26203.83335648 -.02239145  00000-0 -59135-1 0  9993","l2":"2 69547  97.2852 232.2882 0001928  76.8663 171.9104 15.41747398  6018"},{"id":"69548","name":"STARLINK-37265","type":"PAYLOAD","l1":"1 69548U 26135C   26203.83335648 -.03060811  00000-0 -97145-1 0  9990","l2":"2 69548  97.2858 232.3225 0001207  81.3630 251.4363 15.36749178  6015"},{"id":"69549","name":"STARLINK-37871","type":"PAYLOAD","l1":"1 69549U 26135D   26203.91760535 -.00295326  00000-0 -57394-2 0  9998","l2":"2 69549  97.2859 232.3680 0001954  70.2689 289.8773 15.48658235  5860"},{"id":"69550","name":"STARLINK-37865","type":"PAYLOAD","l1":"1 69550U 26135E   26203.91290755  .00055851  00000-0  10719-2 0  9997","l2":"2 69550  97.2869 232.3759 0004043 173.6074 186.5228 15.47791805  5866"},{"id":"69551","name":"STARLINK-37862","type":"PAYLOAD","l1":"1 69551U 26135F   26203.83335648  .00006962  00000-0  19483-3 0  9997","l2":"2 69551  97.2856 232.3332 0001152  84.4918 278.0317 15.36959834  5844"},{"id":"69552","name":"STARLINK-37861","type":"PAYLOAD","l1":"1 69552U 26135G   26203.83335648 -.02576051  00000-0 -61858-1 0  9994","l2":"2 69552  97.2839 232.3167 0001424 108.3222 220.0215 15.45068260  5846"},{"id":"69553","name":"STARLINK-37859","type":"PAYLOAD","l1":"1 69553U 26135H   26203.83335648 -.02367804  00000-0 -59399-1 0  9996","l2":"2 69553  97.2852 232.3379 0001633  91.4420 271.0222 15.43469921  5842"},{"id":"69554","name":"STARLINK-37860","type":"PAYLOAD","l1":"1 69554U 26135J   26203.83335648  .00016176  00000-0  44983-3 0  9991","l2":"2 69554  97.2862 232.3453 0001122  61.2562 328.6592 15.36923131  6011"},{"id":"69555","name":"STARLINK-37858","type":"PAYLOAD","l1":"1 69555U 26135K   26202.52887826 -.00039198  00000-0 -72604-3 0  9999","l2":"2 69555  97.2850 231.0460 0002109 351.4552   8.6663 15.49052782  5654"},{"id":"69556","name":"STARLINK-37927","type":"PAYLOAD","l1":"1 69556U 26135L   26203.51765012  .00044492  00000-0  81408-3 0  9995","l2":"2 69556  97.2853 231.9958 0000620  46.1136 314.0166 15.49225586  5804"},{"id":"69557","name":"STARLINK-37929","type":"PAYLOAD","l1":"1 69557U 26135M   26203.08290396  .00018333  00000-0  33764-3 0  9993","l2":"2 69557  97.2850 231.5156 0001302  72.9388 287.2005 15.49215835  5733"},{"id":"69558","name":"STARLINK-37954","type":"PAYLOAD","l1":"1 69558U 26135N   26203.08167885  .00045013  00000-0  82382-3 0  9995","l2":"2 69558  97.2828 231.5155 0000230 251.3986 108.7240 15.49216201  5730"},{"id":"69559","name":"STARLINK-37958","type":"PAYLOAD","l1":"1 69559U 26135P   26203.83335648  .00027586  00000-0  76395-3 0  9995","l2":"2 69559  97.2861 232.3826 0001525  94.0097  15.8868 15.36943062  5894"},{"id":"69560","name":"STARLINK-37950","type":"PAYLOAD","l1":"1 69560U 26135Q   26203.83335648 -.02353286  00000-0 -55742-1 0  9991","l2":"2 69560  97.2864 232.3759 0001628  79.6916  15.0671 15.45131835  6013"},{"id":"69561","name":"STARLINK-37952","type":"PAYLOAD","l1":"1 69561U 26135R   26203.51286479  .00036631  00000-0  67121-3 0  9998","l2":"2 69561  97.2838 232.0033 0000369  60.1981 299.9307 15.49225907  5808"},{"id":"69562","name":"STARLINK-37935","type":"PAYLOAD","l1":"1 69562U 26135S   26203.07995474  .00041654  00000-0  76293-3 0  9993","l2":"2 69562  97.2793 231.5142 0001305   7.4444 352.6826 15.49209909  5732"},{"id":"69563","name":"STARLINK-37936","type":"PAYLOAD","l1":"1 69563U 26135T   26203.51811239  .00041020  00000-0  75133-3 0  9998","l2":"2 69563  97.2861 231.9941 0000943  54.2797 305.8542 15.49213604  5808"},{"id":"69564","name":"STARLINK-37932","type":"PAYLOAD","l1":"1 69564U 26135U   26203.02451966 -.00009680  00000-0 -17826-3 0  9995","l2":"2 69564  97.2855 231.5965 0003331 196.2614 163.8531 15.48906188  5730"},{"id":"69565","name":"STARLINK-37916","type":"PAYLOAD","l1":"1 69565U 26135V   26203.04169515  .00061336  00000-0  11192-2 0  9997","l2":"2 69565  97.2855 231.5717 0001200 107.0464 253.0919 15.49226768  5734"},{"id":"69566","name":"STARLINK-37909","type":"PAYLOAD","l1":"1 69566U 26135W   26203.83335648  .00023191  00000-0  64285-3 0  9996","l2":"2 69566  97.2851 232.4384 0001636  54.3883 189.9530 15.36948845  6036"},{"id":"69567","name":"STARLINK-37934","type":"PAYLOAD","l1":"1 69567U 26135X   26203.04119030  .00101961  00000-0  18499-2 0  9992","l2":"2 69567  97.2845 231.5723 0001121 126.5242 233.6113 15.49225766  5742"},{"id":"69568","name":"STARLINK-37938","type":"PAYLOAD","l1":"1 69568U 26135Y   26203.32301405  .00059589  00000-0  10883-2 0  9990","l2":"2 69568  97.2865 231.8026 0001424  94.7803 265.3611 15.49208369  5777"},{"id":"69569","name":"STARLINK-37924","type":"PAYLOAD","l1":"1 69569U 26135Z   26203.83335648 -.02415515  00000-0 -55337-1 0  9994","l2":"2 69569  97.2853 232.4138 0001896  88.4390  94.9713 15.46190962  6035"},{"id":"69649","name":"STARLINK-37656","type":"PAYLOAD","l1":"1 69649U 26143A   26203.83834267  .00037588  00000-0  68842-3 0  9996","l2":"2 69649  97.2852 247.7931 0001130 282.3185  77.7940 15.49233414  6068"},{"id":"69650","name":"STARLINK-37646","type":"PAYLOAD","l1":"1 69650U 26143B   26203.83335648 -.00011955  00000-0 -36839-3 0  9990","l2":"2 69650  97.2860 247.8745 0001716 110.6298  51.7044 15.33460175  6089"},{"id":"69651","name":"STARLINK-37749","type":"PAYLOAD","l1":"1 69651U 26143C   26203.83335648 -.00007053  00000-0 -21657-3 0  9997","l2":"2 69651  97.2853 247.9113 0001875  78.5863 173.8718 15.33412426  6077"},{"id":"69652","name":"STARLINK-37819","type":"PAYLOAD","l1":"1 69652U 26143D   26203.83335648 -.00005119  00000-0 -15630-3 0  9993","l2":"2 69652  97.2852 247.8372 0001476  83.0290 349.4036 15.33453827  6080"},{"id":"69653","name":"STARLINK-37729","type":"PAYLOAD","l1":"1 69653U 26143E   26203.83335648 -.02418548  00000-0 -50637-1 0  9994","l2":"2 69653  97.2856 248.5433 0001943  88.1308 202.1704 15.48776188  6087"},{"id":"69654","name":"STARLINK-37838","type":"PAYLOAD","l1":"1 69654U 26143F   26203.83335648 -.00012588  00000-0 -38831-3 0  9991","l2":"2 69654  97.2855 247.9264 0001727 101.3117 196.1037 15.33436736  6085"},{"id":"69655","name":"STARLINK-37884","type":"PAYLOAD","l1":"1 69655U 26143G   26203.83335648 -.02260507  00000-0 -68716-1 0  9993","l2":"2 69655  97.2859 247.8115 0001560  47.7829 333.6018 15.37522848  6083"}]}