OBJECT_NAME,OBJECT_ID,EPOCH,MEAN_MOTION,ECCENTRICITY,INCLINATION,RA_OF_ASC_NODE,ARG_OF_PERICENTER,MEAN_ANOMALY,EPHEMERIS_TYPE,CLASSIFICATION_TYPE,NORAD_CAT_ID,ELEMENT_SET_NO,REV_AT_EPOCH,BSTAR,MEAN_MOTION_DOT,MEAN_MOTION_DDOT
STARLINK-37881,2026-135B,2026-07-22T20:00:01.999872,15.41747398,.00019279,97.2852,232.2882,76.8663,171.9104,0,U,69547,999,601,-.59135271E-1,-.2239145E-1,0
STARLINK-37265,2026-135C,2026-07-22T20:00:01.999872,15.36749178,.00012071,97.2858,232.3225,81.3630,251.4363,0,U,69548,999,601,-.97144885E-1,-.3060811E-1,0
STARLINK-37871,2026-135D,2026-07-22T22:01:21.102240,15.48658235,.00019538,97.2859,232.3680,70.2689,289.8773,0,U,69549,999,586,-.57393687E-2,-.295326E-2,0
STARLINK-37865,2026-135E,2026-07-22T21:54:35.212320,15.47791805,.0004043,97.2869,232.3759,173.6074,186.5228,0,U,69550,999,586,.10718681E-2,.55851E-3,0
STARLINK-37862,2026-135F,2026-07-22T20:00:01.999872,15.36959834,.00011517,97.2856,232.3332,84.4918,278.0317,0,U,69551,999,584,.19483046E-3,.6962E-4,0
STARLINK-37861,2026-135G,2026-07-22T20:00:01.999872,15.45068260,.00014239,97.2839,232.3167,108.3222,220.0215,0,U,69552,999,584,-.61858218E-1,-.2576051E-1,0
STARLINK-37859,2026-135H,2026-07-22T20:00:01.999872,15.43469921,.0001633,97.2852,232.3379,91.4420,271.0222,0,U,69553,999,584,-.59399235E-1,-.2367804E-1,0
STARLINK-37860,2026-135J,2026-07-22T20:00:01.999872,15.36923131,.00011215,97.2862,232.3453,61.2562,328.6592,0,U,69554,999,601,.44983461E-3,.16176E-3,0
STARLINK-37858,2026-135K,2026-07-21T12:41:35.081664,15.49052782,.00021085,97.2850,231.0460,351.4552,8.6663,0,U,69555,999,565,-.72603694E-3,-.39198E-3,0
STARLINK-37927,2026-135L,2026-07-22T12:25:24.970368,15.49225586,.000062,97.2853,231.9958,46.1136,314.0166,0,U,69556,999,580,.81407905E-3,.44492E-3,0
STARLINK-37929,2026-135M,2026-07-22T01:59:22.902144,15.49215835,.00013023,97.2850,231.5156,72.9388,287.2005,0,U,69557,999,573,.33763768E-3,.18333E-3,0
STARLINK-37954,2026-135N,2026-07-22T01:57:37.052640,15.49216201,.00002295,97.2828,231.5155,251.3986,108.7240,0,U,69558,999,573,.82381552E-3,.45013E-3,0
STARLINK-37958,2026-135P,2026-07-22T20:00:01.999872,15.36943062,.00015253,97.2861,232.3826,94.0097,15.8868,0,U,69559,999,589,.76395393E-3,.27586E-3,0
STARLINK-37950,2026-135Q,2026-07-22T20:00:01.999872,15.45131835,.00016282,97.2864,232.3759,79.6916,15.0671,0,U,69560,999,601,-.55742413E-1,-.2353286E-1,0
STARLINK-37952,2026-135R,2026-07-22T12:18:31.517856,15.49225907,.00003692,97.2838,232.0033,60.1981,299.9307,0,U,69561,999,580,.671208E-3,.36631E-3,0
STARLINK-37935,2026-135S,2026-07-22T01:55:08.089536,15.49209909,.00013051,97.2793,231.5142,7.4444,352.6826,0,U,69562,999,573,.76293496E-3,.41654E-3,0
STARLINK-37936,2026-135T,2026-07-22T12:26:04.910496,15.49213604,.00009432,97.2861,231.9941,54.2797,305.8542,0,U,69563,999,580,.75133153E-3,.4102E-3,0
STARLINK-37932,2026-135U,2026-07-22T00:35:18.498624,15.48906188,.00033308,97.2855,231.5965,196.2614,163.8531,0,U,69564,999,573,-.17825837E-3,-.968E-4,0
STARLINK-37916,2026-135V,2026-07-22T01:00:02.460960,15.49226768,.00011998,97.2855,231.5717,107.0464,253.0919,0,U,69565,999,573,.11191961E-2,.61336E-3,0
STARLINK-37909,2026-135W,2026-07-22T20:00:01.999872,15.36948845,.00016364,97.2851,232.4384,54.3883,189.9530,0,U,69566,999,603,.64284976E-3,.23191E-3,0
STARLINK-37934,2026-135X,2026-07-22T00:59:18.841920,15.49225766,.00011207,97.2845,231.5723,126.5242,233.6113,0,U,69567,999,574,.18498572E-2,.101961E-2,0
STARLINK-37938,2026-135Y,2026-07-22T07:45:08.413920,15.49208369,.00014237,97.2865,231.8026,94.7803,265.3611,0,U,69568,999,577,.10883001E-2,.59589E-3,0
STARLINK-37924,2026-135Z,2026-07-22T20:00:01.999872,15.46190962,.00018955,97.2853,232.4138,88.4390,94.9713,0,U,69569,999,603,-.5533737E-1,-.2415515E-1,0
STARLINK-37656,2026-143A,2026-07-22T20:07:12.806688,15.49233414,.000113,97.2852,247.7931,282.3185,77.7940,0,U,69649,999,606,.68841958E-3,.37588E-3,0
STARLINK-37646,2026-143B,2026-07-22T20:00:01.999872,15.33460175,.0001716,97.2860,247.8745,110.6298,51.7044,0,U,69650,999,608,-.36838761E-3,-.11955E-3,0
STARLINK-37749,2026-143C,2026-07-22T20:00:01.999872,15.33412426,.00018749,97.2853,247.9113,78.5863,173.8718,0,U,69651,999,607,-.21656525E-3,-.7053E-4,0
STARLINK-37819,2026-143D,2026-07-22T20:00:01.999872,15.33453827,.00014757,97.2852,247.8372,83.0290,349.4036,0,U,69652,999,608,-.15630016E-3,-.5119E-4,0
STARLINK-37729,2026-143E,2026-07-22T20:00:01.999872,15.48776188,.00019433,97.2856,248.5433,88.1308,202.1704,0,U,69653,999,608,-.50637353E-1,-.2418548E-1,0
STARLINK-37838,2026-143F,2026-07-22T20:00:01.999872,15.33436736,.00017272,97.2855,247.9264,101.3117,196.1037,0,U,69654,999,608,-.38830864E-3,-.12588E-3,0
STARLINK-37884,2026-143G,2026-07-22T20:00:01.999872,15.37522848,.00015603,97.2859,247.8115,47.7829,333.6018,0,U,69655,999,608,-.68715839E-1,-.2260507E-1,0
